COSMOS 2404 (701)       
1 28112U 03056A   08317.20892584 -.00000017  00000-0  10000-3 0  4319
2 28112  64.1059 290.3577 0041000 101.9001 339.0825  2.13104809 38325
COSMOS 2403 (795)       
1 28114U 03056C   08318.03528579 -.00000017  00000-0  10000-3 0  3772
2 28114  64.1209 290.3538 0035533  81.0225  10.1933  2.13104490 38346
COSMOS 2413 (712)       
1 28509U 04053B   08318.19659050 -.00000017  00000-0  10000-3 0   917
2 28509  63.9915 289.1561 0005875 181.0561 251.2014  2.13102832 30211
COSMOS 2419 (714)       
1 28915U 05050A   08317.64563088  .00000110  00000-0  10000-3 0  8236
2 28915  64.8620 170.9466 0007738 347.9847  49.5043  2.13102056 22451
COSMOS 2418 (713)       
1 28916U 05050B   08316.75989964  .00000114  00000-0  10000-3 0  8114
2 28916  64.8809 171.0042 0018860 340.7954  49.7379  2.13103456 22438
COSMOS 2425 (716)       
1 29670U 06062A   08317.23176057 -.00000035  00000-0  10000-3 0  5403
2 29670  65.2484  50.3211 0022180 350.9125  76.9403  2.13103346 14642
COSMOS 2426 (717)       
1 29671U 06062B   08316.80145917 -.00000035  00000-0  10000-3 0  5508
2 29671  65.2633  50.3591 0020502 170.1381 153.4728  2.13103681 14634
COSMOS 2424 (715)       
1 29672U 06062C   08317.10228130 -.00000035  00000-0  10000-3 0  5625
2 29672  65.2502  50.3285 0017963 169.7133 204.8413  2.13103812 14645
COSMOS 2433 (720)       
1 32275U 07052A   08317.61224521  .00000111  00000-0  00000+0 0  2923
2 32275  64.8737 170.6850 0001015 262.1290 291.0883  2.13102416  8168
COSMOS 2432 (719)       
1 32276U 07052B   08318.14690601  .00000107  00000-0  10000-3 0  2727
2 32276  64.8875 170.6862 0014630 346.5168 211.6496  2.13102240  8177
COSMOS 2431 (718)       
1 32277U 07052C   08316.96842771  .00000114  00000-0  00000+0 0  2805
2 32277  64.8893 170.7194 0018101 185.7714 323.5480  2.13102386  8238
COSMOS 2434 (721)       
1 32393U 07065A   08316.55775621 -.00000035  00000-0  00000-0 0  1760
2 32393  64.8661  50.9748 0005727 137.9408 222.1202  2.13103427  6852
COSMOS 2435 (722)       
1 32394U 07065B   08316.32267056 -.00000035  00000-0  00000+0 0  1774
2 32394  64.8643  50.9853 0002865 114.2556 245.7903  2.13103490  6783
COSMOS 2436 (723)       
1 32395U 07065C   08317.37816387 -.00000034  00000-0  10000-3 0  1873
2 32395  64.8788  50.9452 0016704 355.9351   4.0692  2.13103633  6806
COSMOS 2442 (724)       
1 33378U 08046A   08317.96534318  .00000108  00000-0  10000-3 0   679
2 33378  64.7866 170.3436 0028399 338.7549 170.2135  2.13102392  1033
COSMOS 2443 (725)       
1 33379U 08046B   08317.22982712  .00000113  00000-0  10000-3 0   535
2 33379  64.7960 170.3992 0021174 177.5393 352.3013  2.13102648  1027
COSMOS 2444 (726)       
1 33380U 08046C   08317.58101024  .00000111  00000-0  10000-3 0   533
2 33380  64.8032 170.3935 0029670 333.1340  60.9454  2.13102831  1023
